start=new Date('2021-09-16T00:00:00.000Z').valueOf();
sats=[{"LAUNCH_DATE":"2020-06-13","RA_OF_ASC_NODE":"0.5946","ECCENTRICITY":"0.00009850","OBJECT_NAME":"STARLINK-1509","CLASSIFICATION_TYPE":"U","TLE_LINE2":"2 45766  53.0573   0.5946 0000985 105.8327 254.2770 15.06392379 69899","CENTER_NAME":"EARTH","SITE":"AFETR","SEMIMAJOR_AXIS":"6925.372","REV_AT_EPOCH":"6989","MEAN_MOTION_DDOT":"0.0000000000000","OBJECT_ID":"2020-038AN","DECAY_DATE":null,"OBJECT_TYPE":"PAYLOAD","FILE":"3116597","INCLINATION":"53.0573","NORAD_CAT_ID":"45766","TIME_SYSTEM":"UTC","MEAN_MOTION":"15.06392379","EPOCH":"2021-09-15T18:15:23.511456","GP_ID":"184786657","MEAN_ANOMALY":"254.2770","REF_FRAME":"TEME","PERIAPSIS":"546.555","EPHEMERIS_TYPE":"0","MEAN_ELEMENT_THEORY":"SGP4","MEAN_MOTION_DOT":"-0.00000495","BSTAR":"-0.00001432800000","ELEMENT_SET_NO":"999","ARG_OF_PERICENTER":"105.8327","COUNTRY_CODE":"US","TLE_LINE1":"1 45766U 20038AN  21258.76068879 -.00000495  00000-0 -14328-4 0  9992","PERIOD":"95.593","APOAPSIS":"547.919","RCS_SIZE":"LARGE"},{"FILE":"3116597","INCLINATION":"53.0561","NORAD_CAT_ID":"45767","MEAN_MOTION":"15.06398159","TIME_SYSTEM":"UTC","EPOCH":"2021-09-15T16:29:14.011872","GP_ID":"184785408","MEAN_ANOMALY":"251.7570","REF_FRAME":"TEME","PERIAPSIS":"546.410","EPHEMERIS_TYPE":"0","MEAN_ELEMENT_THEORY":"SGP4","MEAN_MOTION_DOT":"0.00001516","BSTAR":"0.00012064000000","ELEMENT_SET_NO":"999","ARG_OF_PERICENTER":"108.3546","COUNTRY_CODE":"US","TLE_LINE1":"1 45767U 20038AP  21258.68696773  .00001516  00000-0  12064-3 0  9991","PERIOD":"95.592","APOAPSIS":"548.028","RCS_SIZE":"LARGE","LAUNCH_DATE":"2020-06-13","RA_OF_ASC_NODE":"0.9260","ECCENTRICITY":"0.00011680","OBJECT_NAME":"STARLINK-1511","CLASSIFICATION_TYPE":"U","TLE_LINE2":"2 45767  53.0561   0.9260 0001168 108.3546 251.7570 15.06398159 69886","CENTER_NAME":"EARTH","SITE":"AFETR","SEMIMAJOR_AXIS":"6925.354","REV_AT_EPOCH":"6988","MEAN_MOTION_DDOT":"0.0000000000000","OBJECT_ID":"2020-038AP","DECAY_DATE":null,"OBJECT_TYPE":"PAYLOAD"},{"BSTAR":"0.00001034300000","ELEMENT_SET_NO":"999","ARG_OF_PERICENTER":"106.6823","TLE_LINE1":"1 45768U 20038AQ  21258.60220334 -.00000127  00000-0  10343-4 0  9997","PERIOD":"95.593","COUNTRY_CODE":"US","APOAPSIS":"548.190","RCS_SIZE":"LARGE","FILE":"3116597","INCLINATION":"53.0564","MEAN_MOTION":"15.06388573","NORAD_CAT_ID":"45768","TIME_SYSTEM":"UTC","EPOCH":"2021-09-15T14:27:10.368576","MEAN_ANOMALY":"253.4315","GP_ID":"184786158","REF_FRAME":"TEME","PERIAPSIS":"546.307","EPHEMERIS_TYPE":"0","MEAN_ELEMENT_THEORY":"SGP4","MEAN_MOTION_DOT":"-0.00000127","MEAN_MOTION_DDOT":"0.0000000000000","DECAY_DATE":null,"OBJECT_ID":"2020-038AQ","OBJECT_TYPE":"PAYLOAD","LAUNCH_DATE":"2020-06-13","RA_OF_ASC_NODE":"1.3090","ECCENTRICITY":"0.00013590","OBJECT_NAME":"STARLINK-1521","CLASSIFICATION_TYPE":"U","TLE_LINE2":"2 45768  53.0564   1.3090 0001359 106.6823 253.4315 15.06388573 69882","CENTER_NAME":"EARTH","SITE":"AFETR","REV_AT_EPOCH":"6988","SEMIMAJOR_AXIS":"6925.384"},{"OBJECT_TYPE":"PAYLOAD","DECAY_DATE":null,"OBJECT_ID":"2020-038AR","MEAN_MOTION_DDOT":"0.0000000000000","CENTER_NAME":"EARTH","SITE":"AFETR","TLE_LINE2":"2 45769  53.0561  20.3057 0001290  99.1109 261.0026 15.06395212 69636","REV_AT_EPOCH":"6963","SEMIMAJOR_AXIS":"6925.363","ECCENTRICITY":"0.00012900","LAUNCH_DATE":"2020-06-13","RA_OF_ASC_NODE":"20.3057","CLASSIFICATION_TYPE":"U","OBJECT_NAME":"STARLINK-1459","APOAPSIS":"548.122","RCS_SIZE":"LARGE","ARG_OF_PERICENTER":"99.1109","BSTAR":"-0.00004145000000","ELEMENT_SET_NO":"999","COUNTRY_CODE":"US","TLE_LINE1":"1 45769U 20038AR  21258.82519048 -.00000899  00000-0 -41450-4 0  9995","PERIOD":"95.592","PERIAPSIS":"546.335","EPHEMERIS_TYPE":"0","GP_ID":"184786910","MEAN_ANOMALY":"261.0026","REF_FRAME":"TEME","MEAN_ELEMENT_THEORY":"SGP4","MEAN_MOTION_DOT":"-0.00000899","INCLINATION":"53.0561","NORAD_CAT_ID":"45769","TIME_SYSTEM":"UTC","MEAN_MOTION":"15.06395212","FILE":"3116597","EPOCH":"2021-09-15T19:48:16.457472"},{"TLE_LINE1":"1 45770U 20038AS  21258.62889688 -.00001587  00000-0 -87630-4 0  9990","PERIOD":"95.592","COUNTRY_CODE":"US","ARG_OF_PERICENTER":"121.3539","ELEMENT_SET_NO":"999","BSTAR":"-0.00008763000000","RCS_SIZE":"LARGE","APOAPSIS":"548.258","EPOCH":"2021-09-15T15:05:36.690432","NORAD_CAT_ID":"45770","MEAN_MOTION":"15.06401397","TIME_SYSTEM":"UTC","INCLINATION":"53.0562","FILE":"3116472","MEAN_MOTION_DOT":"-0.00001587","MEAN_ELEMENT_THEORY":"SGP4","EPHEMERIS_TYPE":"0","PERIAPSIS":"546.160","REF_FRAME":"TEME","GP_ID":"184764116","MEAN_ANOMALY":"238.7598","DECAY_DATE":null,"OBJECT_ID":"2020-038AS","MEAN_MOTION_DDOT":"0.0000000000000","OBJECT_TYPE":"PAYLOAD","OBJECT_NAME":"STARLINK-1462","CLASSIFICATION_TYPE":"U","ECCENTRICITY":"0.00015150","LAUNCH_DATE":"2020-06-13","RA_OF_ASC_NODE":"341.1904","REV_AT_EPOCH":"7127","SEMIMAJOR_AXIS":"6925.344","SITE":"AFETR","CENTER_NAME":"EARTH","TLE_LINE2":"2 45770  53.0562 341.1904 0001515 121.3539 238.7598 15.06401397 71279"},{"OBJECT_TYPE":"PAYLOAD","OBJECT_ID":"2020-038AT","DECAY_DATE":null,"MEAN_MOTION_DDOT":"0.0000000000000","REV_AT_EPOCH":"7125","SEMIMAJOR_AXIS":"6925.347","SITE":"AFETR","CENTER_NAME":"EARTH","TLE_LINE2":"2 45771  53.0559 341.8126 0001057 108.8307 251.2796 15.06400544 71254","CLASSIFICATION_TYPE":"U","OBJECT_NAME":"STARLINK-1463","ECCENTRICITY":"0.00010570","LAUNCH_DATE":"2020-06-13","RA_OF_ASC_NODE":"341.8126","RCS_SIZE":"LARGE","APOAPSIS":"547.944","COUNTRY_CODE":"US","TLE_LINE1":"1 45771U 20038AT  21258.48976164  .00001358  00000-0  11006-3 0  9998","PERIOD":"95.592","ARG_OF_PERICENTER":"108.8307","ELEMENT_SET_NO":"999","BSTAR":"0.00011006000000","MEAN_MOTION_DOT":"0.00001358","MEAN_ELEMENT_THEORY":"SGP4","EPHEMERIS_TYPE":"0","PERIAPSIS":"546.480","REF_FRAME":"TEME","GP_ID":"184763751","MEAN_ANOMALY":"251.2796","EPOCH":"2021-09-15T11:45:15.405696","TIME_SYSTEM":"UTC","NORAD_CAT_ID":"45771","MEAN_MOTION":"15.06400544","INCLINATION":"53.0559","FILE":"3116472"},{"TLE_LINE2":"2 45772  53.0565 342.1626 0000986 118.6293 241.4795 15.06397961 70138","CENTER_NAME":"EARTH","SITE":"AFETR","REV_AT_EPOCH":"7013","SEMIMAJOR_AXIS":"6925.355","LAUNCH_DATE":"2020-06-13","RA_OF_ASC_NODE":"342.1626","ECCENTRICITY":"0.00009860","CLASSIFICATION_TYPE":"U","OBJECT_NAME":"STARLINK-1470","OBJECT_TYPE":"PAYLOAD","MEAN_MOTION_DDOT":"0.0000000000000","OBJECT_ID":"2020-038AU","DECAY_DATE":null,"REF_FRAME":"TEME","GP_ID":"184756096","MEAN_ANOMALY":"241.4795","PERIAPSIS":"546.537","EPHEMERIS_TYPE":"0","MEAN_ELEMENT_THEORY":"SGP4","MEAN_MOTION_DOT":"0.00001361","FILE":"3116289","INCLINATION":"53.0565","NORAD_CAT_ID":"45772","TIME_SYSTEM":"UTC","MEAN_MOTION":"15.06397961","EPOCH":"2021-09-15T09:53:47.970528","APOAPSIS":"547.903","RCS_SIZE":"LARGE","BSTAR":"0.00011023000000","ELEMENT_SET_NO":"999","ARG_OF_PERICENTER":"118.6293","TLE_LINE1":"1 45772U 20038AU  21258.41236077  .00001361  00000-0  11023-3 0  9997","COUNTRY_CODE":"US","PERIOD":"95.592"},{"CENTER_NAME":"EARTH","SITE":"AFETR","TLE_LINE2":"2 45773  53.0558 341.5943 0001004  94.3977 265.7127 15.06389606 70154","SEMIMAJOR_AXIS":"6925.380","REV_AT_EPOCH":"7015","ECCENTRICITY":"0.00010040","LAUNCH_DATE":"2020-06-13","RA_OF_ASC_NODE":"341.5943","CLASSIFICATION_TYPE":"U","OBJECT_NAME":"STARLINK-1482","OBJECT_TYPE":"PAYLOAD","DECAY_DATE":null,"OBJECT_ID":"2020-038AV","MEAN_MOTION_DDOT":"0.0000000000000","PERIAPSIS":"546.550","EPHEMERIS_TYPE":"0","GP_ID":"184756346","MEAN_ANOMALY":"265.7127","REF_FRAME":"TEME","MEAN_ELEMENT_THEORY":"SGP4","MEAN_MOTION_DOT":"-0.00000125","INCLINATION":"53.0558","NORAD_CAT_ID":"45773","TIME_SYSTEM":"UTC","MEAN_MOTION":"15.06389606","FILE":"3116289","EPOCH":"2021-09-15T12:54:17.200512","APOAPSIS":"547.941","RCS_SIZE":"LARGE","ARG_OF_PERICENTER":"94.3977","BSTAR":"0.00001046500000","ELEMENT_SET_NO":"999","COUNTRY_CODE":"US","TLE_LINE1":"1 45773U 20038AV  21258.53769908 -.00000125  00000-0  10465-4 0  9993","PERIOD":"95.593"},{"APOAPSIS":"548.021","RCS_SIZE":"MEDIUM","ELEMENT_SET_NO":"999","BSTAR":"0.00009865500000","ARG_OF_PERICENTER":"109.2457","TLE_LINE1":"1 45774U 20038AW  21258.64090011  .00001188  00000-0  98655-4 0  9994","PERIOD":"95.593","COUNTRY_CODE":"US","GP_ID":"184786658","MEAN_ANOMALY":"250.8653","REF_FRAME":"TEME","EPHEMERIS_TYPE":"0","PERIAPSIS":"546.467","MEAN_MOTION_DOT":"0.00001188","MEAN_ELEMENT_THEORY":"SGP4","FILE":"3116597","NORAD_CAT_ID":"45774","TIME_SYSTEM":"UTC","MEAN_MOTION":"15.06390159","INCLINATION":"53.0544","EPOCH":"2021-09-15T15:22:53.769504","OBJECT_TYPE":"PAYLOAD","MEAN_MOTION_DDOT":"0.0000000000000","DECAY_DATE":null,"OBJECT_ID":"2020-038AW","TLE_LINE2":"2 45774  53.0544 341.1387 0001122 109.2457 250.8653 15.06390159 70163","SITE":"AFETR","CENTER_NAME":"EARTH","REV_AT_EPOCH":"7016","SEMIMAJOR_AXIS":"6925.379","LAUNCH_DATE":"2020-06-13","RA_OF_ASC_NODE":"341.1387","ECCENTRICITY":"0.00011220","OBJECT_NAME":"STARLINK-1485","CLASSIFICATION_TYPE":"U"},{"OBJECT_TYPE":"PAYLOAD","MEAN_MOTION_DDOT":"0.0000000000000","DECAY_DATE":null,"OBJECT_ID":"2020-038AX","TLE_LINE2":"2 45775  53.0556 341.1163 0000988 103.7274 256.3825 15.06390937 70171","CENTER_NAME":"EARTH","SITE":"AFETR","SEMIMAJOR_AXIS":"6925.376","REV_AT_EPOCH":"7017","LAUNCH_DATE":"2020-06-13","RA_OF_ASC_NODE":"341.1163","ECCENTRICITY":"0.00009880","OBJECT_NAME":"STARLINK-1488","CLASSIFICATION_TYPE":"U","APOAPSIS":"547.926","RCS_SIZE":"LARGE","BSTAR":"0.00011292000000","ELEMENT_SET_NO":"999","ARG_OF_PERICENTER":"103.7274","TLE_LINE1":"1 45775U 20038AX  21258.64458627  .00001401  00000-0  11292-3 0  9995","COUNTRY_CODE":"US","PERIOD":"95.593","MEAN_ANOMALY":"256.3825","GP_ID":"184785409","REF_FRAME":"TEME","PERIAPSIS":"546.557","EPHEMERIS_TYPE":"0","MEAN_ELEMENT_THEORY":"SGP4","MEAN_MOTION_DOT":"0.00001401","FILE":"3116597","INCLINATION":"53.0556","NORAD_CAT_ID":"45775","MEAN_MOTION":"15.06390937","TIME_SYSTEM":"UTC","EPOCH":"2021-09-15T15:28:12.253728"}];
